GLOBALSTAR M075         
1 37192U 10054E   24175.56494810 -.00000109  00000+0 -30459-4 0  9994
2 37192  51.9920 193.4625 0000130 156.9597  21.1005 12.62261190630712
GLOBALSTAR M073         
1 37193U 10054F   24175.32777164 -.00000109  00000+0 -27353-4 0  9994
2 37193  52.0055 107.7301 0000464  26.3188 151.9213 12.62266286632513
GLOBALSTAR M083         
1 37739U 11033A   24175.87341856 -.00000104  00000+0  68235-6 0  9993
2 37739  51.9872  55.2881 0000792  84.4703 356.4636 12.62270446601965
GLOBALSTAR M088         
1 37740U 11033B   24175.86399058 -.00000091  00000+0  71121-4 0  9992
2 37740  51.9751 321.1112 0000874 121.9771  35.9471 12.62264510597435
GLOBALSTAR M091         
1 37741U 11033C   24175.80062678 -.00000072  00000+0  17965-3 0  9996
2 37741  52.0006 284.2209 0000922 139.5861  28.9025 12.62264074598181
GLOBALSTAR M085         
1 37742U 11033D   24175.62782185 -.00000068  00000+0  19843-3 0  9991
2 37742  51.9858 236.1010 0000594 156.8620   7.4884 12.62262956598903
GLOBALSTAR M081         
1 37743U 11033E   24175.57155865 -.00000069  00000+0  19272-3 0  9992
2 37743  51.9947 238.8392 0000576 178.5406 329.0548 12.62266289598552
GLOBALSTAR M089         
1 37744U 11033F   24175.53605789 -.00000090  00000+0  74124-4 0  9996
2 37744  51.9902 193.2438 0000267 309.7256 215.0848 12.62265357599392
